# From MPC117070
A/2018 V3,e,164.9777,308.6582,3.4974,121.7661,0.0007335,0.98899985,0.0000,09/08.6944/2019,2000,g 15.7,2.0
# From MPC114604
C/2018 V4 (Africano),e,69.0045,78.3804,359.9816,212.0852,0.0003191,0.98491754,0.0000,03/01.5808/2019,2000,g 12.5,4.0
# From MPC114604
P/2018 V5 (Trujillo-Sheppard),e,10.5814,171.3032,260.7555,8.956615,0.0367695,0.47449009,16.8315,01/04.0/2020,2000,g 12.5,4.0
# From MPC115884
C/2018 W1 (Catalina),e,83.2714,233.5915,251.2580,21.81498,0.0096732,0.93764097,2.2939,01/04.0/2020,2000,g 15.7,2.0
# From MPC118842
C/2018 W2 (Africano),h,09/05.7315/2019,116.6155,181.8499,157.9761,1.000723,1.454698,2000,9.5,4.0
# From MPC115884
C/2018 X2 (Fitzsimmons),e,23.0698,340.8302,162.0511,151.7011,0.0005275,0.98598612,0.0000,07/08.5369/2019,2000,g 12.0,4.0
# From MPC114604
C/2018 X3 (PANSTARRS),e,43.3690,78.9230,359.8035,12.40017,0.0225716,0.78238922,8.3359,01/04.0/2020,2000,g 14.5,4.0
# From MPC118842
C/2018 Y1 (Iwamoto),e,160.4034,147.4940,358.0545,144.6466,0.0005666,0.99110483,0.0000,02/07.0343/2019,2000,g 11.5,4.0
# From MPC114605
P/2018 Y2 (Africano),e,11.6825,297.2657,162.4525,7.470592,0.0482694,0.47891512,17.7007,01/04.0/2020,2000,g 11.5,4.0
# From MPC114605
P/2019 A1 (PANSTARRS),e,13.7442,312.3012,150.8322,5.126838,0.0849043,0.56860129,38.2101,01/04.0/2020,2000,g 16.0,4.0
# From MPC114605
P/2019 A2 (ATLAS),e,14.8589,139.4619,324.1830,5.728527,0.0718852,0.38159562,29.3887,01/04.0/2020,2000,g 10.5,4.0
# From MPC114605
P/2019 A3 (PANSTARRS),e,15.3647,31.3232,325.4787,3.147568,0.1764987,0.26517385,91.8015,01/04.0/2020,2000,g 16.0,4.0
# From MPC114605
P/2019 A4 (PANSTARRS),e,13.3206,119.3011,341.5966,2.612682,0.2333857,0.08937225,92.3407,01/04.0/2020,2000,g 15.0,4.0
# From MPC118842
C/2019 A5 (PANSTARRS),e,67.5458,146.6201,356.0291,21.63462,0.0097945,0.70768793,2.0440,01/04.0/2020,2000,g  9.5,4.0
# From MPC114605
P/2019 A6 (Lemmon-PANSTARRS),e,33.2292,280.2741,156.2676,5.367712,0.0792538,0.63895725,39.0546,01/04.0/2020,2000,g 16.0,4.0
# From MPC114605
P/2019 A7 (PANSTARRS),e,17.7743,280.5246,119.3683,3.186691,0.1732584,0.16084849,125.8808,01/04.0/2020,2000,g 13.5,4.0
# From MPC115884
P/2019 A8 (PANSTARRS),e,2.9725,127.8473,21.7028,3.362399,0.1598565,0.44043456,78.0274,01/04.0/2020,2000,g 16.0,4.0
# From MPC118842
C/2019 A9 (PANSTARRS),e,84.3419,278.3682,237.8092,38.80082,0.0040780,0.96323517,0.6585,01/04.0/2020,2000,g 15.0,4.0
# From MPC114606
C/2019 B1 (Africano),e,123.3634,290.4352,174.8731,151.6643,0.0005277,0.98946989,0.0000,03/19.9058/2019,2000,g 16.0,4.0
# From MPC115885
P/2019 B2 (Groeller),e,16.8280,176.4558,358.7508,3.853322,0.1303020,0.37284687,27.3439,01/04.0/2020,2000,g 14.5,4.0
# From MPC115885
C/2019 B3 (PANSTARRS),h,01/19.5323/2021,66.5333,358.4151,263.8746,1.002944,6.824146,2000,5.5,4.0
# From MPC118842
A/2019 C1,e,36.0146,212.4005,319.1852,860.9853,0.0000390,0.99235608,0.0000,05/05.6984/2020,2000,g 10.0,4.0
# From MPC118842
C/2019 D1 (Flewelling),e,34.0970,231.7191,70.4853,138.5265,0.0006045,0.98861078,0.0000,05/11.8528/2019,2000,g 13.0,4.0
# From MPC118842
C/2019 E3 (ATLAS),h,11/11.5854/2023,84.2752,347.2179,280.5817,1.004991,10.316616,2000,2.5,4.0
# From MPC117071
C/2019 F1 (ATLAS-Africano),h,06/22.7926/2021,54.1728,38.7264,251.1003,1.003193,3.596578,2000,5.5,4.0
# From MPC115885
C/2019 F2 (ATLAS),e,19.1880,175.8682,10.9659,16.53458,0.0146593,0.86495806,1.7162,01/04.0/2020,2000,g 12.0,4.0
# From MPC118842
A/2019 G2,e,159.2116,208.1446,82.6524,718.1920,0.0000512,0.99680954,0.0000,12/10.0604/2019,2000,g 16.5,2.0
# From MPC118094
A/2019 G4,h,09/15.6945/2018,138.3815,130.4670,287.8749,1.000482,5.858683,2000,13.0,2.0
# From MPC114607
P/2019 GG21 (PANSTARRS),e,6.0840,340.6050,208.3207,7.463723,0.0483360,0.47277530,11.5539,01/04.0/2020,2000,g 12.0,4.0
# From MPC115885
C/2019 H1 (NEOWISE),e,104.5791,269.1853,19.2833,225.9291,0.0002902,0.99183425,0.0000,04/27.7312/2019,2000,g 15.5,4.0
# From MPC118842
C/2019 J1 (Lemmon),e,24.5506,98.0882,167.7781,70.43478,0.0016673,0.96481111,0.4497,01/04.0/2020,2000,g 12.0,4.0
# From MPC115885
C/2019 J2 (Palomar),e,105.1355,25.4712,98.7077,706.5896,0.0000525,0.99755593,0.0000,07/19.7288/2019,2000,g 13.0,4.0
# From MPC117071
C/2019 J3 (ATLAS),e,131.4138,270.5175,16.5462,43209,0.0000001,0.99994507,0.0000,08/01.8685/2019,2000,g 13.5,4.0
# From MPC117071
C/2019 JU6 (ATLAS),e,148.2931,21.7365,94.8694,332.3441,0.0001627,0.99384717,0.0000,05/31.8711/2019,2000,g 14.5,4.0
# From MPC117071
C/2019 K1 (ATLAS),e,87.1459,73.3747,265.7115,7649,0.0000015,0.99973692,0.0000,02/12.9614/2020,2000,g 10.0,4.0
# From MPC118842
C/2019 K4 (Ye),e,105.3034,180.1650,139.7732,2134,0.0000100,0.99894109,0.0000,06/16.4164/2019,2000,g 12.5,4.0
# From MPC118842
C/2019 K5 (Young),e,15.3149,177.1858,174.9234,152.8040,0.0005218,0.98668165,0.0000,06/22.7640/2019,2000,g 13.0,4.0
# From MPC117071
A/2019 K6,e,132.3771,42.9391,187.6000,1601,0.0000154,0.99754631,0.0000,05/20.0860/2020,2000,g 13.6,2.0
# From MPC118095
C/2019 K7 (Smith),h,06/16.8174/2020,103.5011,307.9165,27.2790,1.002126,4.475023,2000,6.2,4.0
# From MPC117071
C/2019 K8 (ATLAS),e,93.2225,291.0454,85.3591,1584,0.0000156,0.99798257,0.0000,07/21.2501/2019,2000,g 11.5,4.0
# From MPC118095
C/2019 L1 (PANSTARRS),e,9.9934,254.4079,49.9261,9.835659,0.0319521,0.70614401,4.6555,01/04.0/2020,2000,g 13.5,4.0
# From MPC115886
C/2019 L2 (NEOWISE),e,152.1860,12.5641,18.7505,25.00406,0.0078829,0.93520206,2.1839,01/04.0/2020,2000,g 16.0,4.0
# From MPC118843
C/2019 L3 (ATLAS),h,01/09.9125/2022,48.3663,290.7853,171.6779,1.000330,3.552460,2000,4.5,4.0
# From MPC118095
C/2019 LB7 (Kleyna),e,164.2331,3.2905,335.9141,35.12606,0.0047343,0.92930612,1.3386,01/04.0/2020,2000,g 17.0,4.0
# From MPC118843
P/2019 M2 (ATLAS),e,12.2818,307.6015,332.5281,3.025468,0.1872902,0.64848599,36.5839,01/04.0/2020,2000,g 21.2,4.0
# From MPC118095
C/2019 M3 (ATLAS),h,01/03.0372/2019,99.4379,154.8958,87.9415,1.002072,2.418133,2000,12.2,4.0
# From MPC118843
C/2019 N1 (ATLAS),e,82.4241,13.5790,193.4451,13915,0.0000006,0.99987750,0.0000,12/01.7933/2020,2000,g  7.5,4.0
# From MPC118843
A/2019 O2,e,93.2868,48.3451,129.6374,57.53898,0.0022582,0.83170833,357.3151,01/04.0/2020,2000,g  9.5,2.0
# From MPC118843
A/2019 O3,h,03/07.0317/2021,89.8140,300.3804,59.9991,1.001318,8.819558,2000,10.0,2.0
# From MPC117072
A/2019 O4,e,115.0845,354.9180,61.8013,32.87833,0.0052280,0.88915355,359.8070,01/04.0/2020,2000,g 15.5,2.0
# From MPC118843
A/2019 Q1,h,07/19.5677/2020,155.7228,42.3402,55.9107,1.001260,4.997261,2000,12.5,2.0
# From MPC117072
A/2019 Q2,e,159.0274,187.9612,176.2717,58.09208,0.0022260,0.97834706,0.0000,07/22.3674/2019,2000,g 18.0,2.0
# From MPC117072
C/2019 Q3 (PANSTARRS),h,08/20.8695/2018,65.5324,151.3253,152.6315,1.004662,7.250456,2000,8.5,4.0
# From MPC117072
P/2019 S2 (PANSTARRS),e,10.4732,93.1263,216.7239,4.734168,0.0956838,0.20680068,30.3585,01/04.0/2020,2000,g 13.5,4.0
# From MPC118096
P/2019 S3 (PANSTARRS),e,8.6925,150.1680,212.9600,3.413659,0.1562694,0.47070956,20.4537,01/04.0/2020,2000,g 18.3,4.0
# From MPC118843
A/2019 S4,e,92.0249,63.1694,71.3567,242.3723,0.0002612,0.98580021,0.0000,04/07.9450/2020,2000,g 14.5,2.0
# From MPC118843
A/2019 T1,e,120.8684,6.9492,90.9909,38.18967,0.0041762,0.88786958,358.4295,01/04.0/2020,2000,g 13.0,2.0
# From MPC118843
A/2019 T2,e,111.4676,155.6372,239.3899,1683,0.0000143,0.99842805,0.0000,04/22.3959/2021,2000,g 12.5,2.0
# From MPC118843
C/2019 T3 (ATLAS),e,121.8620,139.5114,112.2453,10146,0.0000010,0.99941386,0.0000,03/02.3722/2021,2000,g  6.8,4.0
# From MPC118844
C/2019 T4 (ATLAS),e,53.6165,199.9835,351.1966,1187,0.0000241,0.99642616,0.0000,06/09.0253/2022,2000,g  5.0,4.0
# From MPC118096
C/2019 T5 (ATLAS),e,33.4242,247.6861,189.5439,7.894855,0.0444312,0.80644777,6.9303,01/04.0/2020,2000,g 15.0,4.0
# From MPC118096
P/2019 T6 (PANSTARRS),e,18.6974,71.3098,328.9178,5.432104,0.0778488,0.62226138,4.4548,01/04.0/2020,2000,g 15.5,4.0
# From MPC118096
P/2019 U4 (PANSTARRS),e,11.6909,200.0382,180.9557,3.519860,0.1492505,0.47525147,16.0668,01/04.0/2020,2000,g 19.0,4.0
# From MPC118844
A/2019 U5,h,03/30.5823/2023,113.5291,2.7098,181.6245,1.000242,3.621322,2000,10.0,2.0
# From MPC118844
A/2019 U6,e,61.0024,235.7073,329.6559,439.8586,0.0001068,0.99792136,0.0000,06/18.8235/2020,2000,g 14.5,2.0
# From MPC118097
C/2019 V1 (Borisov),p,07/16.3366/2020,61.9003,51.0667,3.102588,83.2114,2000,11.0,4.0
# From MPC118844
P/2019 V2 (Groeller),e,11.7873,189.2948,334.1296,7.569275,0.0473285,0.33332734,347.0730,01/04.0/2020,2000,g 10.0,4.0
# From  98, 1083
1P/Halley,e,162.3189,58.1479,111.0851,17.86839,0.0130490,0.96630047,161.8942,01/04.0/2020,2000,g  4.0,6.0
# From MPC118097
2P/Encke,e,11.7648,334.5534,186.5633,2.215150,0.2989505,0.84800046,308.0285,01/04.0/2020,2000,g 11.5,6.0
# From MPEC 2015-A10
4P/Faye,e,8.0251,193.5424,206.6756,3.820779,0.1319703,0.57918640,279.0127,01/04.0/2020,2000,g  8.0,6.0
# From MPEC 2015-S97
6P/d'Arrest,e,19.5094,138.9283,178.0743,3.498617,0.1506120,0.61244340,266.1928,01/04.0/2020,2000,g  9.0,4.0
# From MPEC 2015-E14
7P/Pons-Winnecke,e,22.3648,93.3810,172.5536,3.415983,0.1561099,0.63854338,280.5309,01/04.0/2020,2000,g  9.0,4.0
# From MPC 75715
8P/Tuttle,e,54.9124,270.2069,207.4976,5.700085,0.0724239,0.81994303,316.4086,01/04.0/2020,2000,g  9.0,4.0
# From MPEC 2019-JE2
9P/Tempel,e,10.4735,68.7375,179.3030,3.147395,0.1765132,0.50958000,220.4397,01/04.0/2020,2000,g  9.0,4.0
# From MPC114607
10P/Tempel,e,12.0396,117.8078,195.5037,3.060953,0.1840429,0.53839786,278.0405,01/04.0/2020,2000,g  5.0,10.0
# From MPEC 2017-L52
11P/Tempel-Swift-LINEAR,e,14.4268,238.9593,167.8346,3.286669,0.1654132,0.57725984,305.8946,01/04.0/2020,2000,g  9.0,4.0
# From  27, 604
12P/Pons-Brooks,e,74.0614,255.6977,199.0700,17.06124,0.0139858,0.95425894,338.0507,01/04.0/2020,2000,g  5.0,6.0
# From  27, 604
13P/Olbers,e,44.6274,85.8363,64.5955,16.65973,0.0144945,0.92979028,336.2244,01/04.0/2020,2000,g  5.0,6.0
# From MPC100283
14P/Wolf,e,27.8999,202.0930,158.9817,4.259623,0.1121108,0.35643849,85.5443,01/04.0/2020,2000,g  5.5,12.0
# From MPC 92276
